NORAD_CAT_ID,OBJECT_NAME,OBJECT_TYPE,EPOCH,MEAN_MOTION,ECCENTRICITY,INCLINATION,RA_OF_ASC_NODE,ARG_OF_PERICENTER,MEAN_ANOMALY,BSTAR,MEAN_MOTION_DOT,MEAN_MOTION_DDOT,TLE_LINE0,TLE_LINE1,TLE_LINE2,SEMIMAJOR_AXIS,PERIOD,APOGEE,PERIGEE,DECAYED
54798.0,STARLINK-5420,PAYLOAD,2024-03-20 04:35:08,15.08852017,0.0001317,53.2188,8.8423,99.37,260.7441,0.00019265,2.78e-05,0.0,0 STARLINK-5420,1 54798U 22175AS  24080.19107053  .00002780  00000-0  19265-3 0  9993,2 54798  53.2188   8.8423 0001317  99.3700 260.7441 15.08852017 71657,6917.844,95.437,540.62,538.798,0.0
54798.0,STARLINK-5420,PAYLOAD,2024-03-21 01:15:09,15.08841117,0.0001255,53.2186,4.9738,99.6525,260.4609,-2.6238e-05,-7.05e-06,0.0,0 STARLINK-5420,1 54798U 22175AS  24081.05219718 -.00000705  00000-0 -26238-4 0  9997,2 54798  53.2186   4.9738 0001255  99.6525 260.4609 15.08841117 69626,6917.877,95.437,540.61,538.874,0.0
54798.0,STARLINK-5420,PAYLOAD,2024-03-21 12:22:51,15.08847083,0.0001442,53.2201,2.8945,99.2692,260.8463,4.2242e-06,-2.21e-06,0.0,0 STARLINK-5420,1 54798U 22175AS  24081.51587657 -.00000221  00000-0  42242-5 0  9994,2 54798  53.2201   2.8945 0001442  99.2692 260.8463 15.08847083 71858,6917.859,95.437,540.721,538.726,0.0
54798.0,STARLINK-5420,PAYLOAD,2024-03-21 21:55:10,15.08840815,0.0001458,53.2194,1.1082,98.2533,261.8624,-4.6496e-06,-3.62e-06,0.0,0 STARLINK-5420,1 54798U 22175AS  24081.91331775 -.00000362  00000-0 -46496-5 0  9998,2 54798  53.2194   1.1082 0001458  98.2533 261.8624 15.08840815 71916,6917.878,95.438,540.752,538.734,0.0
54798.0,STARLINK-5420,PAYLOAD,2024-03-22 04:16:42,15.08849527,0.0001822,53.2196,359.9137,112.9262,247.1922,0.00015286,2.146e-05,0.0,0 STARLINK-5420,1 54798U 22175AS  24082.17827270  .00002146  00000-0  15286-3 0  9998,2 54798  53.2196 359.9137 0001822 112.9262 247.1922 15.08849527 69791,6917.851,95.437,540.977,538.456,0.0
54798.0,STARLINK-5420,PAYLOAD,2024-03-22 21:45:58,15.08821565,0.0001342,53.2197,356.649,82.2396,277.8748,-8.1073e-05,-1.577e-05,0.0,0 STARLINK-5420,1 54798U 22175AS  24082.90692969 -.00001577  00000-0 -81073-4 0  9991,2 54798  53.2197 356.6490 0001342  82.2396 277.8748 15.08821565 69903,6917.937,95.439,540.73,538.873,0.0
54798.0,STARLINK-5420,PAYLOAD,2024-03-23 21:36:45,15.08843109,0.0001324,53.2189,352.1871,85.158,274.9564,0.00019259,2.779e-05,0.0,0 STARLINK-5420,1 54798U 22175AS  24083.90052450  .00002779  00000-0  19259-3 0  9996,2 54798  53.2189 352.1871 0001324  85.1580 274.9564 15.08843109 70055,6917.871,95.437,540.652,538.82,0.0
54798.0,STARLINK-5420,PAYLOAD,2024-03-24 10:19:48,15.08887583,0.0001528,53.2176,349.8082,73.6112,286.5048,0.00094458,0.00014796,0.0,0 STARLINK-5420,1 54798U 22175AS  24084.43042223  .00014796  00000-0  94458-3 0  9998,2 54798  53.2176 349.8082 0001528  73.6112 286.5048 15.08887583 70136,6917.735,95.435,540.657,538.543,0.0
54798.0,STARLINK-5420,PAYLOAD,2024-03-24 21:27:32,15.08836211,0.0002043,53.217,347.7249,115.1575,244.9629,0.00015498,2.179e-05,0.0,0 STARLINK-5420,1 54798U 22175AS  24084.89412893  .00002179  00000-0  15498-3 0  9991,2 54798  53.2170 347.7249 0002043 115.1575 244.9629 15.08836211 70203,6917.892,95.438,541.17,538.344,0.0
54798.0,STARLINK-5420,PAYLOAD,2024-03-24 23:02:55,15.08838874,0.000167,53.2171,347.4293,100.8037,259.3143,0.00023153,3.399e-05,0.0,0 STARLINK-5420,1 54798U 22175AS  24084.96036970  .00003399  00000-0  23153-3 0  9999,2 54798  53.2171 347.4293 0001670 100.8037 259.3143 15.08838874 72377,6917.884,95.438,540.904,538.594,0.0
54798.0,STARLINK-5420,PAYLOAD,2024-03-25 21:18:20,15.08803981,0.0001716,53.2159,343.2631,79.7943,280.3242,-0.00041976,-6.956e-05,0.0,0 STARLINK-5420,1 54798U 22175AS  24085.88774263 -.00006956  00000-0 -41976-3 0  9992,2 54798  53.2159 343.2631 0001716  79.7943 280.3242 15.08803981 70355,6917.99,95.44,541.043,538.668,0.0
54798.0,STARLINK-5420,PAYLOAD,2024-03-25 22:53:44,15.08810611,0.0001821,53.216,342.9679,83.6811,276.4389,-0.00031251,-5.254e-05,0.0,0 STARLINK-5420,1 54798U 22175AS  24085.95398382 -.00005254  00000-0 -31251-3 0  9999,2 54798  53.2160 342.9679 0001821  83.6811 276.4389 15.08810611 72527,6917.97,95.439,541.095,538.575,0.0
54798.0,STARLINK-5420,PAYLOAD,2024-03-26 03:39:53,15.08816558,0.0001822,53.2164,342.0756,89.6019,270.5182,0.00025005,3.691e-05,0.0,0 STARLINK-5420,1 54798U 22175AS  24086.15270661  .00003691  00000-0  25005-3 0  9992,2 54798  53.2164 342.0756 0001822  89.6019 270.5182 15.08816558 70390,6917.952,95.439,541.077,538.557,0.0
54798.0,STARLINK-5420,PAYLOAD,2024-03-26 10:01:26,15.08830566,0.0001636,53.2167,340.8897,92.8517,267.2662,0.0007009,0.00010882,0.0,0 STARLINK-5420,1 54798U 22175AS  24086.41766668  .00010882  00000-0  70090-3 0  9992,2 54798  53.2167 340.8897 0001636  92.8517 267.2662 15.08830566 70433,6917.909,95.438,540.906,538.642,0.0
54798.0,STARLINK-5420,PAYLOAD,2024-03-26 22:44:31,15.08846326,0.0001604,53.2149,338.5117,88.9164,271.2012,0.00075484,0.00011748,0.0,0 STARLINK-5420,1 54798U 22175AS  24086.94758506  .00011748  00000-0  75484-3 0  9996,2 54798  53.2149 338.5117 0001604  88.9164 271.2012 15.08846326 72674,6917.861,95.437,540.836,538.616,0.0
54798.0,STARLINK-5420,PAYLOAD,2024-03-27 00:19:54,15.08855239,0.0001835,53.2168,338.2146,87.8287,272.2915,0.0012599,0.00019829,0.0,0 STARLINK-5420,1 54798U 22175AS  24087.01382564  .00019829  00000-0  12599-2 0  9997,2 54798  53.2168 338.2146 0001835  87.8287 272.2915 15.08855239 70522,6917.834,95.437,540.968,538.429,0.0
54798.0,STARLINK-5420,PAYLOAD,2024-03-27 09:52:12,15.0888237,0.0001861,53.2169,336.4277,82.0891,278.0312,0.0014846,0.00023446,0.0,0 STARLINK-5420,1 54798U 22175AS  24087.41125622  .00023446  00000-0  14846-2 0  9998,2 54798  53.2169 336.4277 0001861  82.0891 278.0312 15.08882370 72742,6917.751,95.435,540.903,538.328,0.0
54798.0,STARLINK-5420,PAYLOAD,2024-03-27 20:59:54,15.08846132,0.0001217,53.2165,334.3482,91.8257,268.2875,0.00083239,0.00012987,0.0,0 STARLINK-5420,1 54798U 22175AS  24087.87493609  .00012987  00000-0  83239-3 0  9992,2 54798  53.2165 334.3482 0001217  91.8257 268.2875 15.08846132 70651,6917.862,95.437,540.569,538.885,0.0
54798.0,STARLINK-5420,PAYLOAD,2024-03-27 22:35:17,15.08845345,0.0001163,53.2162,334.0512,90.2807,269.8319,0.0011443,0.00017973,0.0,0 STARLINK-5420,1 54798U 22175AS  24087.94117601  .00017973  00000-0  11443-2 0  9992,2 54798  53.2162 334.0512 0001163  90.2807 269.8319 15.08845345 72829,6917.864,95.437,540.534,538.925,0.0
54798.0,STARLINK-5420,PAYLOAD,2024-03-28 09:42:59,15.08859566,0.0001224,53.2161,331.9701,87.1663,272.9469,0.001393,0.00021963,0.0,0 STARLINK-5420,1 54798U 22175AS  24088.40485323  .00021963  00000-0  13930-2 0  9990,2 54798  53.2161 331.9701 0001224  87.1663 272.9469 15.08859566 72895,6917.821,95.436,540.532,538.839,0.0
54798.0,STARLINK-5420,PAYLOAD,2024-03-28 16:04:32,15.08827296,0.0001305,53.2168,330.7767,126.9391,233.1721,0.00059317,9.162e-05,0.0,0 STARLINK-5420,1 54798U 22175AS  24088.66981551  .00009162  00000-0  59317-3 0  9999,2 54798  53.2168 330.7767 0001305 126.9391 233.1721 15.08827296 70771,6917.919,95.438,540.687,538.881,0.0
54798.0,STARLINK-5420,PAYLOAD,2024-03-28 22:26:04,15.08840026,0.0001349,53.2167,329.5872,117.0718,243.0412,0.00053636,8.259e-05,0.0,0 STARLINK-5420,1 54798U 22175AS  24088.93477537  .00008259  00000-0  53636-3 0  9997,2 54798  53.2167 329.5872 0001349 117.0718 243.0412 15.08840026 72972,6917.88,95.438,540.679,538.812,0.0
54798.0,STARLINK-5420,PAYLOAD,2024-03-29 09:33:46,15.08849804,0.0001299,53.2166,327.5083,103.9422,256.1714,0.00080173,0.00012498,0.0,0 STARLINK-5420,1 54798U 22175AS  24089.39845499  .00012498  00000-0  80173-3 0  9990,2 54798  53.2166 327.5083 0001299 103.9422 256.1714 15.08849804 73045,6917.85,95.437,540.614,538.817,0.0
54798.0,STARLINK-5420,PAYLOAD,2024-03-29 22:16:51,15.08847436,0.0001191,53.2168,325.1301,90.5587,269.5542,0.0006627,0.00010277,0.0,0 STARLINK-5420,1 54798U 22175AS  24089.92837553  .00010277  00000-0  66270-3 0  9996,2 54798  53.2168 325.1301 0001191  90.5587 269.5542 15.08847436 73123,6917.858,95.437,540.547,538.899,0.0
54798.0,STARLINK-5420,PAYLOAD,2024-03-30 01:27:37,15.08854545,0.0001319,53.2186,324.5347,95.9508,264.1634,0.0008018,0.00012501,0.0,0 STARLINK-5420,1 54798U 22175AS  24090.06085435  .00012501  00000-0  80180-3 0  9995,2 54798  53.2186 324.5347 0001319  95.9508 264.1634 15.08854545 70983,6917.836,95.437,540.613,538.788,0.0
54798.0,STARLINK-5420,PAYLOAD,2024-03-30 22:07:38,15.08839948,0.0001168,53.2167,320.668,88.1189,271.9937,0.00035461,5.36e-05,0.0,0 STARLINK-5420,1 54798U 22175AS  24090.92197883  .00005360  00000-0  35461-3 0  9998,2 54798  53.2167 320.6680 0001168  88.1189 271.9937 15.08839948 71118,6917.881,95.438,540.554,538.938,0.0
54798.0,STARLINK-5420,PAYLOAD,2024-03-31 07:39:57,15.08852177,0.0001341,53.2182,318.8836,89.7628,270.3518,0.00060616,9.375e-05,0.0,0 STARLINK-5420,1 54798U 22175AS  24091.31941719  .00009375  00000-0  60616-3 0  9997,2 54798  53.2182 318.8836 0001341  89.7628 270.3518 15.08852177 73338,6917.843,95.437,540.636,538.78,0.0
54798.0,STARLINK-5420,PAYLOAD,2024-03-31 21:58:25,15.08850788,0.0001437,53.2191,316.2111,94.2145,265.9012,0.00035556,5.377e-05,0.0,0 STARLINK-5420,1 54798U 22175AS  24091.91557518  .00005377  00000-0  35556-3 0  9996,2 54798  53.2191 316.2111 0001437  94.2145 265.9012 15.08850788 73422,6917.847,95.437,540.707,538.718,0.0
54798.0,STARLINK-5420,PAYLOAD,2024-04-01 07:30:44,15.08851371,0.0001438,53.2182,314.4273,97.5177,262.5978,0.00037732,5.724e-05,0.0,0 STARLINK-5420,1 54798U 22175AS  24092.31301404  .00005724  00000-0  37732-3 0  9996,2 54798  53.2182 314.4273 0001438  97.5177 262.5978 15.08851371 71323,6917.846,95.437,540.705,538.716,0.0
54798.0,STARLINK-5420,PAYLOAD,2024-04-01 21:49:11,15.08875032,0.0001279,53.2172,311.7504,97.9223,262.1915,0.00076814,0.0001197,0.0,0 STARLINK-5420,1 54798U 22175AS  24092.90916048  .00011970  00000-0  76814-3 0  9991,2 54798  53.2172 311.7504 0001279  97.9223 262.1915 15.08875032 71415,6917.773,95.435,540.523,538.754,0.0
